IRIDIUM 119             
1 42959U 17061E   24301.62910509  .00000760  00000+0  26447-3 0  9994
2 42959  86.3919 274.9292 0002531  94.3167 265.8318 14.34217233369161
IRIDIUM 107             
1 42960U 17061F   24302.20625663  .00000273  00000+0  90431-4 0  9999
2 42960  86.3920 274.7055 0002566  91.0701 269.0789 14.34227836369265
IRIDIUM 132             
1 42961U 17061G   24301.79401313  .00000377  00000+0  12742-3 0  9990
2 42961  86.3918 274.8620 0002641  87.7818 272.3680 14.34218321369195
IRIDIUM 136             
1 42962U 17061H   24302.38386102  .00001047  00000+0  36681-3 0  9998
2 42962  86.3920 274.6189 0002349  88.7980 271.3485 14.34218839369290
IRIDIUM 139             
1 42963U 17061J   24301.69252590 -.00000215  00000+0 -83856-4 0  9990
2 42963  86.3919 274.9604 0002399  89.0774 271.0696 14.34220524369200
IRIDIUM 125             
1 42964U 17061K   24301.88915007  .00000390  00000+0  13203-3 0  9991
2 42964  86.3922 274.9285 0002450  97.6764 262.4710 14.34217651369244
IRIDIUM 135             
1 43070U 17083A   24302.49119186  .00001600  00000+0  56423-3 0  9992
2 43070  86.4023 211.3546 0001965  71.0634 289.0775 14.34218700358625
IRIDIUM 138             
1 43071U 17083B   24302.51654012  .00001310  00000+0  46044-3 0  9994
2 43071  86.4013 211.0453 0001934  98.2975 261.8440 14.34221164358618
